{
  "links" : {
    "next" : "https://api.nasa.gov/neo/rest/v1/feed?start_date=1995-05-23&end_date=1995-05-23&detailed=true&api_key=t0TVs3DtDT2H8Oy2Zy8m2eVrNsAVKAexjcZXUckd",
    "prev" : "https://api.nasa.gov/neo/rest/v1/feed?start_date=1995-05-21&end_date=1995-05-21&detailed=true&api_key=t0TVs3DtDT2H8Oy2Zy8m2eVrNsAVKAexjcZXUckd",
    "self" : "https://api.nasa.gov/neo/rest/v1/feed?start_date=1995-05-22&end_date=1995-05-22&detailed=true&api_key=t0TVs3DtDT2H8Oy2Zy8m2eVrNsAVKAexjcZXUckd"
  },
  "element_count" : 4,
  "near_earth_objects" : {
    "1995-05-22" : [ {
      "links" : {
        "self" : "https://api.nasa.gov/neo/rest/v1/neo/3484042?api_key=t0TVs3DtDT2H8Oy2Zy8m2eVrNsAVKAexjcZXUckd"
      },
      "neo_reference_id" : "3484042",
      "name" : "(2009 YT6)",
      "nasa_jpl_url" : "http://ssd.jpl.nasa.gov/sbdb.cgi?sstr=3484042",
      "absolute_magnitude_h" : 20.6,
      "estimated_diameter" : {
        "kilometers" : {
          "estimated_diameter_min" : 0.2016299194,
          "estimated_diameter_max" : 0.4508582062
        },
        "meters" : {
          "estimated_diameter_min" : 201.6299194428,
          "estimated_diameter_max" : 450.8582061718
        },
        "miles" : {
          "estimated_diameter_min" : 0.1252869847,
          "estimated_diameter_max" : 0.2801502144
        },
        "feet" : {
          "estimated_diameter_min" : 661.5155049046,
          "estimated_diameter_max" : 1479.1936371367
        }
      },
      "is_potentially_hazardous_asteroid" : false,
      "close_approach_data" : [ {
        "close_approach_date" : "1995-05-22",
        "epoch_date_close_approach" : 801126000000,
        "relative_velocity" : {
          "kilometers_per_second" : "15.4554198905",
          "kilometers_per_hour" : "55639.5116057431",
          "miles_per_hour" : "34572.2287530241"
        },
        "miss_distance" : {
          "astronomical" : "0.1096739132",
          "lunar" : "42.6631507874",
          "kilometers" : "16406984",
          "miles" : "10194827"
        },
        "orbiting_body" : "Earth"
      } ],
      "orbital_data" : {
        "orbit_id" : "8",
        "orbit_determination_date" : "2017-04-06 08:58:42",
        "orbit_uncertainty" : "7",
        "minimum_orbit_intersection" : ".0947896",
        "jupiter_tisserand_invariant" : "4.044",
        "epoch_osculation" : "2458000.5",
        "eccentricity" : ".4908497989594158",
        "semi_major_axis" : "1.661650553101948",
        "inclination" : "22.1301664250267",
        "ascending_node_longitude" : "72.21757892144072",
        "orbital_period" : "782.3624022975998",
        "perihelion_distance" : ".8460297131710548",
        "perihelion_argument" : "100.3153715205702",
        "aphelion_distance" : "2.477271393032841",
        "perihelion_time" : "2457629.305441271954",
        "mean_anomaly" : "170.8032501941032",
        "mean_motion" : ".4601448113339436",
        "equinox" : "J2000"
      }
    }, {
      "links" : {
        "self" : "https://api.nasa.gov/neo/rest/v1/neo/3330689?api_key=t0TVs3DtDT2H8Oy2Zy8m2eVrNsAVKAexjcZXUckd"
      },
      "neo_reference_id" : "3330689",
      "name" : "(2006 HW50)",
      "nasa_jpl_url" : "http://ssd.jpl.nasa.gov/sbdb.cgi?sstr=3330689",
      "absolute_magnitude_h" : 24.4,
      "estimated_diameter" : {
        "kilometers" : {
          "estimated_diameter_min" : 0.0350392641,
          "estimated_diameter_max" : 0.0783501764
        },
        "meters" : {
          "estimated_diameter_min" : 35.0392641108,
          "estimated_diameter_max" : 78.3501764334
        },
        "miles" : {
          "estimated_diameter_min" : 0.0217723826,
          "estimated_diameter_max" : 0.0486845275
        },
        "feet" : {
          "estimated_diameter_min" : 114.9582192654,
          "estimated_diameter_max" : 257.0543928497
        }
      },
      "is_potentially_hazardous_asteroid" : false,
      "close_approach_data" : [ {
        "close_approach_date" : "1995-05-22",
        "epoch_date_close_approach" : 801126000000,
        "relative_velocity" : {
          "kilometers_per_second" : "14.6851764215",
          "kilometers_per_hour" : "52866.635117418",
          "miles_per_hour" : "32849.2711372645"
        },
        "miss_distance" : {
          "astronomical" : "0.3870564736",
          "lunar" : "150.5649719238",
          "kilometers" : "57902824",
          "miles" : "35979148"
        },
        "orbiting_body" : "Earth"
      } ],
      "orbital_data" : {
        "orbit_id" : "16",
        "orbit_determination_date" : "2017-06-21 06:17:20",
        "orbit_uncertainty" : "0",
        "minimum_orbit_intersection" : ".021176",
        "jupiter_tisserand_invariant" : "5.170",
        "epoch_osculation" : "2458000.5",
        "eccentricity" : ".1896829317424602",
        "semi_major_axis" : "1.233608012173821",
        "inclination" : "5.565071112894867",
        "ascending_node_longitude" : "215.9032878169585",
        "orbital_period" : "500.4540394052879",
        "perihelion_distance" : ".9996136278037018",
        "perihelion_argument" : "323.5602403844879",
        "aphelion_distance" : "1.46760239654394",
        "perihelion_time" : "2457831.348117978593",
        "mean_anomaly" : "121.6788610599896",
        "mean_motion" : ".7193467764348634",
        "equinox" : "J2000"
      }
    }, {
      "links" : {
        "self" : "https://api.nasa.gov/neo/rest/v1/neo/3605319?api_key=t0TVs3DtDT2H8Oy2Zy8m2eVrNsAVKAexjcZXUckd"
      },
      "neo_reference_id" : "3605319",
      "name" : "(2012 KM45)",
      "nasa_jpl_url" : "http://ssd.jpl.nasa.gov/sbdb.cgi?sstr=3605319",
      "absolute_magnitude_h" : 18.8,
      "estimated_diameter" : {
        "kilometers" : {
          "estimated_diameter_min" : 0.4619074603,
          "estimated_diameter_max" : 1.0328564805
        },
        "meters" : {
          "estimated_diameter_min" : 461.9074602816,
          "estimated_diameter_max" : 1032.8564805039
        },
        "miles" : {
          "estimated_diameter_min" : 0.2870159005,
          "estimated_diameter_max" : 0.6417870641
        },
        "feet" : {
          "estimated_diameter_min" : 1515.4444719902,
          "estimated_diameter_max" : 3388.6368554964
        }
      },
      "is_potentially_hazardous_asteroid" : false,
      "close_approach_data" : [ {
        "close_approach_date" : "1995-05-22",
        "epoch_date_close_approach" : 801126000000,
        "relative_velocity" : {
          "kilometers_per_second" : "19.5361708097",
          "kilometers_per_hour" : "70330.2149148512",
          "miles_per_hour" : "43700.4604841752"
        },
        "miss_distance" : {
          "astronomical" : "0.346919794",
          "lunar" : "134.9517974854",
          "kilometers" : "51898464",
          "miles" : "32248210"
        },
        "orbiting_body" : "Earth"
      } ],
      "orbital_data" : {
        "orbit_id" : "29",
        "orbit_determination_date" : "2017-04-06 08:49:40",
        "orbit_uncertainty" : "2",
        "minimum_orbit_intersection" : ".0613713",
        "jupiter_tisserand_invariant" : "3.232",
        "epoch_osculation" : "2458000.5",
        "eccentricity" : ".591282535960133",
        "semi_major_axis" : "2.269587545102286",
        "inclination" : "28.17732240810394",
        "ascending_node_longitude" : "95.20300055129501",
        "orbital_period" : "1248.874609320113",
        "perihelion_distance" : ".9276200658506738",
        "perihelion_argument" : "158.5215330934825",
        "aphelion_distance" : "3.611555024353899",
        "perihelion_time" : "2458591.874608312348",
        "mean_anomaly" : "189.5306371002728",
        "mean_motion" : ".2882595236650571",
        "equinox" : "J2000"
      }
    }, {
      "links" : {
        "self" : "https://api.nasa.gov/neo/rest/v1/neo/3694462?api_key=t0TVs3DtDT2H8Oy2Zy8m2eVrNsAVKAexjcZXUckd"
      },
      "neo_reference_id" : "3694462",
      "name" : "(2014 UD57)",
      "nasa_jpl_url" : "http://ssd.jpl.nasa.gov/sbdb.cgi?sstr=3694462",
      "absolute_magnitude_h" : 25.8,
      "estimated_diameter" : {
        "kilometers" : {
          "estimated_diameter_min" : 0.0183888672,
          "estimated_diameter_max" : 0.0411187571
        },
        "meters" : {
          "estimated_diameter_min" : 18.388867207,
          "estimated_diameter_max" : 41.1187571041
        },
        "miles" : {
          "estimated_diameter_min" : 0.0114263088,
          "estimated_diameter_max" : 0.0255500032
        },
        "feet" : {
          "estimated_diameter_min" : 60.3309310875,
          "estimated_diameter_max" : 134.9040630575
        }
      },
      "is_potentially_hazardous_asteroid" : false,
      "close_approach_data" : [ {
        "close_approach_date" : "1995-05-22",
        "epoch_date_close_approach" : 801126000000,
        "relative_velocity" : {
          "kilometers_per_second" : "4.8238986328",
          "kilometers_per_hour" : "17366.0350781873",
          "miles_per_hour" : "10790.578851777"
        },
        "miss_distance" : {
          "astronomical" : "0.4017865719",
          "lunar" : "156.2949676514",
          "kilometers" : "60106416",
          "miles" : "37348396"
        },
        "orbiting_body" : "Earth"
      } ],
      "orbital_data" : {
        "orbit_id" : "13",
        "orbit_determination_date" : "2017-04-06 08:37:55",
        "orbit_uncertainty" : "6",
        "minimum_orbit_intersection" : ".00120536",
        "jupiter_tisserand_invariant" : "4.769",
        "epoch_osculation" : "2458000.5",
        "eccentricity" : ".3500664333192877",
        "semi_major_axis" : "1.365936091394591",
        "inclination" : ".6544971567741348",
        "ascending_node_longitude" : "214.1302323153935",
        "orbital_period" : "583.1012834449405",
        "perihelion_distance" : ".887767715737998",
        "perihelion_argument" : "119.6465718765472",
        "aphelion_distance" : "1.844104467051184",
        "perihelion_time" : "2458076.200143044031",
        "mean_anomaly" : "313.2636057069759",
        "mean_motion" : ".617388454151796",
        "equinox" : "J2000"
      }
    } ]
  }
}